[{"OBJECT_NAME":"SL-8 R/B","OBJECT_ID":"1979-089B","EPOCH":"2026-03-26T16:03:34.241184","MEAN_MOTION":14.42360214,"ECCENTRICITY":0.001682,"INCLINATION":74.0682,"RA_OF_ASC_NODE":59.6091,"ARG_OF_PERICENTER":230.1896,"MEAN_ANOMALY":129.7781,"EPHEMERIS_TYPE":0,"CLASSIFICATION_TYPE":"U","NORAD_CAT_ID":11574,"ELEMENT_SET_NO":999,"REV_AT_EPOCH":43855,"BSTAR":8.3724e-5,"MEAN_MOTION_DOT":2.51e-6,"MEAN_MOTION_DDOT":0},{"OBJECT_NAME":"SL-14 R/B","OBJECT_ID":"1980-005B","EPOCH":"2026-03-26T13:45:22.347648","MEAN_MOTION":14.90948568,"ECCENTRICITY":0.0017208,"INCLINATION":82.5114,"RA_OF_ASC_NODE":291.2177,"ARG_OF_PERICENTER":105.7018,"MEAN_ANOMALY":254.61,"EPHEMERIS_TYPE":0,"CLASSIFICATION_TYPE":"U","NORAD_CAT_ID":11672,"ELEMENT_SET_NO":999,"REV_AT_EPOCH":47900,"BSTAR":5.0078e-5,"MEAN_MOTION_DOT":5.21e-6,"MEAN_MOTION_DDOT":0},{"OBJECT_NAME":"SL-8 R/B","OBJECT_ID":"1981-003B","EPOCH":"2026-03-26T11:41:39.784128","MEAN_MOTION":15.11694938,"ECCENTRICITY":0.0261106,"INCLINATION":82.9344,"RA_OF_ASC_NODE":274.4826,"ARG_OF_PERICENTER":120.1697,"MEAN_ANOMALY":242.5682,"EPHEMERIS_TYPE":0,"CLASSIFICATION_TYPE":"U","NORAD_CAT_ID":12139,"ELEMENT_SET_NO":999,"REV_AT_EPOCH":31721,"BSTAR":0.00053669,"MEAN_MOTION_DOT":0.00021371,"MEAN_MOTION_DDOT":0},{"OBJECT_NAME":"SL-3 R/B","OBJECT_ID":"1981-046B","EPOCH":"2026-03-26T18:48:35.771904","MEAN_MOTION":15.42402377,"ECCENTRICITY":0.0018319,"INCLINATION":81.2287,"RA_OF_ASC_NODE":269.2071,"ARG_OF_PERICENTER":321.9349,"MEAN_ANOMALY":38.0598,"EPHEMERIS_TYPE":0,"CLASSIFICATION_TYPE":"U","NORAD_CAT_ID":12465,"ELEMENT_SET_NO":999,"REV_AT_EPOCH":44106,"BSTAR":0.00026876,"MEAN_MOTION_DOT":0.00011712,"MEAN_MOTION_DDOT":0},{"OBJECT_NAME":"SL-3 R/B","OBJECT_ID":"1981-103B","EPOCH":"2026-03-26T19:20:11.202144","MEAN_MOTION":15.21573988,"ECCENTRICITY":0.0012698,"INCLINATION":81.1604,"RA_OF_ASC_NODE":193.3544,"ARG_OF_PERICENTER":225.2823,"MEAN_ANOMALY":134.7376,"EPHEMERIS_TYPE":0,"CLASSIFICATION_TYPE":"U","NORAD_CAT_ID":12904,"ELEMENT_SET_NO":999,"REV_AT_EPOCH":97583,"BSTAR":0.00020292,"MEAN_MOTION_DOT":4.609e-5,"MEAN_MOTION_DDOT":0},{"OBJECT_NAME":"SL-3 R/B","OBJECT_ID":"1982-013B","EPOCH":"2026-03-26T19:21:52.157088","MEAN_MOTION":15.22168915,"ECCENTRICITY":0.0023434,"INCLINATION":81.1742,"RA_OF_ASC_NODE":140.7078,"ARG_OF_PERICENTER":121.1993,"MEAN_ANOMALY":239.154,"EPHEMERIS_TYPE":0,"CLASSIFICATION_TYPE":"U","NORAD_CAT_ID":13068,"ELEMENT_SET_NO":999,"REV_AT_EPOCH":40695,"BSTAR":0.00016089,"MEAN_MOTION_DOT":3.745e-5,"MEAN_MOTION_DDOT":0},{"OBJECT_NAME":"SL-3 R/B","OBJECT_ID":"1982-039B","EPOCH":"2026-03-26T19:38:03.379488","MEAN_MOTION":15.10174108,"ECCENTRICITY":0.0028772,"INCLINATION":81.1569,"RA_OF_ASC_NODE":196.2124,"ARG_OF_PERICENTER":267.9293,"MEAN_ANOMALY":91.8638,"EPHEMERIS_TYPE":0,"CLASSIFICATION_TYPE":"U","NORAD_CAT_ID":13154,"ELEMENT_SET_NO":999,"REV_AT_EPOCH":38422,"BSTAR":0.00015176,"MEAN_MOTION_DOT":2.523e-5,"MEAN_MOTION_DDOT":0},{"OBJECT_NAME":"SL-3 R/B","OBJECT_ID":"1982-079B","EPOCH":"2026-03-26T19:02:07.570752","MEAN_MOTION":15.25025406,"ECCENTRICITY":0.0025544,"INCLINATION":81.1481,"RA_OF_ASC_NODE":172.883,"ARG_OF_PERICENTER":108.4741,"MEAN_ANOMALY":251.9272,"EPHEMERIS_TYPE":0,"CLASSIFICATION_TYPE":"U","NORAD_CAT_ID":13403,"ELEMENT_SET_NO":999,"REV_AT_EPOCH":38030,"BSTAR":0.00023422,"MEAN_MOTION_DOT":5.929e-5,"MEAN_MOTION_DDOT":0},{"OBJECT_NAME":"SL-14 R/B","OBJECT_ID":"1982-092B","EPOCH":"2026-03-26T13:20:33.974592","MEAN_MOTION":14.86681056,"ECCENTRICITY":0.0018927,"INCLINATION":82.5662,"RA_OF_ASC_NODE":125.6218,"ARG_OF_PERICENTER":243.186,"MEAN_ANOMALY":277.5297,"EPHEMERIS_TYPE":0,"CLASSIFICATION_TYPE":"U","NORAD_CAT_ID":13553,"ELEMENT_SET_NO":999,"REV_AT_EPOCH":33143,"BSTAR":4.2607e-5,"MEAN_MOTION_DOT":4.04e-6,"MEAN_MOTION_DDOT":0},{"OBJECT_NAME":"SL-3 R/B","OBJECT_ID":"1983-010B","EPOCH":"2026-03-26T10:51:50.749344","MEAN_MOTION":15.46914021,"ECCENTRICITY":0.0016251,"INCLINATION":81.1052,"RA_OF_ASC_NODE":341.6892,"ARG_OF_PERICENTER":354.4772,"MEAN_ANOMALY":5.629,"EPHEMERIS_TYPE":0,"CLASSIFICATION_TYPE":"U","NORAD_CAT_ID":13819,"ELEMENT_SET_NO":999,"REV_AT_EPOCH":36053,"BSTAR":0.00029158,"MEAN_MOTION_DOT":0.00014787,"MEAN_MOTION_DDOT":0},{"OBJECT_NAME":"SL-3 R/B","OBJECT_ID":"1983-075B","EPOCH":"2026-03-26T18:59:41.551296","MEAN_MOTION":15.38810209,"ECCENTRICITY":0.002203,"INCLINATION":97.6146,"RA_OF_ASC_NODE":91.0218,"ARG_OF_PERICENTER":163.4949,"MEAN_ANOMALY":196.7018,"EPHEMERIS_TYPE":0,"CLASSIFICATION_TYPE":"U","NORAD_CAT_ID":14208,"ELEMENT_SET_NO":999,"REV_AT_EPOCH":33278,"BSTAR":0.00028271,"MEAN_MOTION_DOT":0.00010853,"MEAN_MOTION_DDOT":0},{"OBJECT_NAME":"COSMOS 1536","OBJECT_ID":"1984-013A","EPOCH":"2026-03-26T11:07:38.241120","MEAN_MOTION":15.24044911,"ECCENTRICITY":0.0013103,"INCLINATION":82.542,"RA_OF_ASC_NODE":91.1692,"ARG_OF_PERICENTER":217.1448,"MEAN_ANOMALY":142.8884,"EPHEMERIS_TYPE":0,"CLASSIFICATION_TYPE":"U","NORAD_CAT_ID":14699,"ELEMENT_SET_NO":999,"REV_AT_EPOCH":27517,"BSTAR":0.00024093,"MEAN_MOTION_DOT":5.887e-5,"MEAN_MOTION_DDOT":0},{"OBJECT_NAME":"SL-14 R/B","OBJECT_ID":"1984-027B","EPOCH":"2026-03-26T20:44:17.023488","MEAN_MOTION":14.85993908,"ECCENTRICITY":0.0016485,"INCLINATION":82.5412,"RA_OF_ASC_NODE":228.9032,"ARG_OF_PERICENTER":277.2055,"MEAN_ANOMALY":82.7287,"EPHEMERIS_TYPE":0,"CLASSIFICATION_TYPE":"U","NORAD_CAT_ID":14820,"ELEMENT_SET_NO":999,"REV_AT_EPOCH":25018,"BSTAR":6.1546e-5,"MEAN_MOTION_DOT":5.63e-6,"MEAN_MOTION_DDOT":0},{"OBJECT_NAME":"SL-8 R/B","OBJECT_ID":"1985-006B","EPOCH":"2026-03-26T16:42:25.344288","MEAN_MOTION":14.37795162,"ECCENTRICITY":0.0017772,"INCLINATION":74.0447,"RA_OF_ASC_NODE":229.8523,"ARG_OF_PERICENTER":142.8066,"MEAN_ANOMALY":232.9936,"EPHEMERIS_TYPE":0,"CLASSIFICATION_TYPE":"U","NORAD_CAT_ID":15483,"ELEMENT_SET_NO":999,"REV_AT_EPOCH":15647,"BSTAR":0.0001094,"MEAN_MOTION_DOT":3.04e-6,"MEAN_MOTION_DDOT":0},{"OBJECT_NAME":"SL-12 R/B(2)","OBJECT_ID":"1985-042D","EPOCH":"2026-03-26T09:01:24.387744","MEAN_MOTION":14.2198699,"ECCENTRICITY":0.0032849,"INCLINATION":71.1081,"RA_OF_ASC_NODE":52.4723,"ARG_OF_PERICENTER":100.4881,"MEAN_ANOMALY":11.2275,"EPHEMERIS_TYPE":0,"CLASSIFICATION_TYPE":"U","NORAD_CAT_ID":15772,"ELEMENT_SET_NO":999,"REV_AT_EPOCH":11676,"BSTAR":7.3228e-5,"MEAN_MOTION_DOT":1.15e-6,"MEAN_MOTION_DDOT":0},{"OBJECT_NAME":"SL-14 R/B","OBJECT_ID":"1985-069B","EPOCH":"2026-03-26T12:10:10.314048","MEAN_MOTION":14.86450842,"ECCENTRICITY":0.0019896,"INCLINATION":82.5304,"RA_OF_ASC_NODE":9.1234,"ARG_OF_PERICENTER":133.3114,"MEAN_ANOMALY":226.9766,"EPHEMERIS_TYPE":0,"CLASSIFICATION_TYPE":"U","NORAD_CAT_ID":15945,"ELEMENT_SET_NO":999,"REV_AT_EPOCH":17533,"BSTAR":5.2308e-5,"MEAN_MOTION_DOT":4.88e-6,"MEAN_MOTION_DDOT":0},{"OBJECT_NAME":"SL-16 R/B","OBJECT_ID":"1985-097B","EPOCH":"2026-03-26T10:44:11.690592","MEAN_MOTION":14.16603392,"ECCENTRICITY":0.0009504,"INCLINATION":71.0009,"RA_OF_ASC_NODE":105.2731,"ARG_OF_PERICENTER":240.1328,"MEAN_ANOMALY":221.7684,"EPHEMERIS_TYPE":0,"CLASSIFICATION_TYPE":"U","NORAD_CAT_ID":16182,"ELEMENT_SET_NO":999,"REV_AT_EPOCH":8960,"BSTAR":4.6811e-5,"MEAN_MOTION_DOT":4.6e-7,"MEAN_MOTION_DDOT":0}]
