SL-8 R/B                
1 11574U 79089B   26085.66914631  .00000251  00000+0  83724-4 0  9993
2 11574  74.0682  59.6091 0016820 230.1896 129.7781 14.42360214438550
SL-14 R/B               
1 11672U 80005B   26085.57317532  .00000521  00000+0  50078-4 0  9995
2 11672  82.5114 291.2177 0017208 105.7018 254.6100 14.90948568479001
SL-8 R/B                
1 12139U 81003B   26085.48726602  .00021371  00000+0  53669-3 0  9999
2 12139  82.9344 274.4826 0261106 120.1697 242.5682 15.11694938317213
SL-3 R/B                
1 12465U 81046B   26085.78374736  .00011712  00000+0  26876-3 0  9996
2 12465  81.2287 269.2071 0018319 321.9349  38.0598 15.42402377441061
SL-3 R/B                
1 12904U 81103B   26085.80568521  .00004609  00000+0  20292-3 0  9991
2 12904  81.1604 193.3544 0012698 225.2823 134.7376 15.21573988975839
SL-3 R/B                
1 13068U 82013B   26085.80685367  .00003745  00000+0  16089-3 0  9991
2 13068  81.1742 140.7078 0023434 121.1993 239.1540 15.22168915406950
SL-3 R/B                
1 13154U 82039B   26085.81809467  .00002523  00000+0  15176-3 0  9994
2 13154  81.1569 196.2124 0028772 267.9293  91.8638 15.10174108384227
SL-3 R/B                
1 13403U 82079B   26085.79314318  .00005929  00000+0  23422-3 0  9994
2 13403  81.1481 172.8830 0025544 108.4741 251.9272 15.25025406380302
SL-14 R/B               
1 13553U 82092B   26085.55594878  .00000404  00000+0  42607-4 0  9990
2 13553  82.5662 125.6218 0018927 243.1860 277.5297 14.86681056331432
SL-3 R/B                
1 13819U 83010B   26085.45267071  .00014787  00000+0  29158-3 0  9991
2 13819  81.1052 341.6892 0016251 354.4772   5.6290 15.46914021360533
SL-3 R/B                
1 14208U 83075B   26085.79145314  .00010853  00000+0  28271-3 0  9992
2 14208  97.6146  91.0218 0022030 163.4949 196.7018 15.38810209332786
COSMOS 1536             
1 14699U 84013A   26085.46363705  .00005887  00000+0  24093-3 0  9998
2 14699  82.5420  91.1692 0013103 217.1448 142.8884 15.24044911275173
SL-14 R/B               
1 14820U 84027B   26085.86408592  .00000563  00000+0  61546-4 0  9998
2 14820  82.5412 228.9032 0016485 277.2055  82.7287 14.85993908250183
SL-8 R/B                
1 15483U 85006B   26085.69612667  .00000304  00000+0  10940-3 0  9997
2 15483  74.0447 229.8523 0017772 142.8066 232.9936 14.37795162156473
SL-12 R/B(2)            
1 15772U 85042D   26085.37597671  .00000115  00000+0  73228-4 0  9999
2 15772  71.1081  52.4723 0032849 100.4881  11.2275 14.21986990116761
SL-14 R/B               
1 15945U 85069B   26085.50706382  .00000488  00000+0  52308-4 0  9995
2 15945  82.5304   9.1234 0019896 133.3114 226.9766 14.86450842175335
SL-16 R/B               
1 16182U 85097B   26085.44735753  .00000046  00000+0  46811-4 0  9999
2 16182  71.0009 105.2731 0009504 240.1328 221.7684 14.16603392 89602
